{
"type": "FeatureCollection",
"crs": { "type": "name", "properties": { "name": "urn:ogc:def:crs:OGC:1.3:CRS84" } },
                                                                                
"features": [
{ "type": "Feature", "properties": { "OBJECTID": 43, "NAME": "Kirche Unbefleckte Empfängnis", "ANSCHRIFT": "Albert-Schweitzer-Gasse  38\/Kirche", "PLZ": 8020, "ORT": "Graz" }, "geometry": { "type": "Point", "coordinates": [ 15.429811191405784, 47.063591618766473 ] } },
{ "type": "Feature", "properties": { "OBJECTID": 44, "NAME": "Münzgraben-Kirche", "ANSCHRIFT": "Münzgrabenstraße 61\/Kirche", "PLZ": 8010, "ORT": "Graz" }, "geometry": { "type": "Point", "coordinates": [ 15.451945867497669, 47.061339846860335 ] } },
{ "type": "Feature", "properties": { "OBJECTID": 45, "NAME": "Röm.-kath. Pfarre Graben Hl.Johannes d.T.", "ANSCHRIFT": "Kirchengasse 4", "PLZ": 8010, "ORT": "Graz" }, "geometry": { "type": "Point", "coordinates": [ 15.439793748112175, 47.08141855147047 ] } },
{ "type": "Feature", "properties": { "OBJECTID": 46, "NAME": "Röm.-kath. Pfarre St.Lukas", "ANSCHRIFT": "Eggenberger Gürtel 76", "PLZ": 8020, "ORT": "Graz" }, "geometry": { "type": "Point", "coordinates": [ 15.421306467672023, 47.064692627514347 ] } },
{ "type": "Feature", "properties": { "OBJECTID": 47, "NAME": "Röm.-kath. Pfarre Liebenau St.Paul", "ANSCHRIFT": "St.-Paulus-Platz 1", "PLZ": 8041, "ORT": "Graz" }, "geometry": { "type": "Point", "coordinates": [ 15.460000542924861, 47.033877027581717 ] } },
{ "type": "Feature", "properties": { "OBJECTID": 48, "NAME": "Röm.-kath. Pfarre Mariatrost, Basilika", "ANSCHRIFT": "Kirchplatz 8", "PLZ": 8044, "ORT": "Graz" }, "geometry": { "type": "Point", "coordinates": [ 15.491374543661573, 47.107000828387356 ] } },
{ "type": "Feature", "properties": { "OBJECTID": 49, "NAME": "Röm.-kath. Pfarre Mariagrün", "ANSCHRIFT": "Mariagrüner Straße 82", "PLZ": 8043, "ORT": "Graz" }, "geometry": { "type": "Point", "coordinates": [ 15.453311567907569, 47.09810127209682 ] } },
{ "type": "Feature", "properties": { "OBJECTID": 50, "NAME": "Buddhistisches Zentrum She Drup Ling ", "ANSCHRIFT": "Griesgasse 2", "PLZ": 8020, "ORT": "Graz" }, "geometry": { "type": "Point", "coordinates": [ 15.433736075900827, 47.070773597492199 ] } },
{ "type": "Feature", "properties": { "OBJECTID": 51, "NAME": "Röm.-kath. Pfarre Kalvarienberg", "ANSCHRIFT": "Kalvarienbergstraße 155", "PLZ": 8020, "ORT": "Graz" }, "geometry": { "type": "Point", "coordinates": [ 15.417343597741722, 47.092802016590106 ] } },
{ "type": "Feature", "properties": { "OBJECTID": 52, "NAME": "Röm.-kath. Pfarre St.Johannes", "ANSCHRIFT": "Vinzenz-Muchitsch-Straße 60", "PLZ": 8020, "ORT": "Graz" }, "geometry": { "type": "Point", "coordinates": [ 15.428090580019319, 47.049498262786621 ] } },
{ "type": "Feature", "properties": { "OBJECTID": 53, "NAME": "Röm.-kath. Pfarre Webling, St.Elisabeth", "ANSCHRIFT": "Glesingerstraße 36", "PLZ": 8054, "ORT": "Graz" }, "geometry": { "type": "Point", "coordinates": [ 15.402463750883729, 47.038862874330881 ] } },
{ "type": "Feature", "properties": { "OBJECTID": 54, "NAME": "Röm.-kath. Pfarre Salvator", "ANSCHRIFT": "Robert-Stolz-Gasse 3", "PLZ": 8010, "ORT": "Graz" }, "geometry": { "type": "Point", "coordinates": [ 15.426316673286879, 47.090391033580623 ] } },
{ "type": "Feature", "properties": { "OBJECTID": 55, "NAME": "Röm.-kath. Pfarre Puntigam St.Leopold", "ANSCHRIFT": "Gradnerstraße 28", "PLZ": 8055, "ORT": "Graz" }, "geometry": { "type": "Point", "coordinates": [ 15.425910278203771, 47.022885347734473 ] } },
{ "type": "Feature", "properties": { "OBJECTID": 56, "NAME": "Evangelische Pfarre Kreuzkirche", "ANSCHRIFT": "Mühlgasse 43", "PLZ": 8020, "ORT": "Graz" }, "geometry": { "type": "Point", "coordinates": [ 15.426028992702735, 47.074178144830924 ] } },
{ "type": "Feature", "properties": { "OBJECTID": 57, "NAME": "Evangelische Pfarre Graz-Nord", "ANSCHRIFT": "Grabenstraße 59", "PLZ": 8010, "ORT": "Graz" }, "geometry": { "type": "Point", "coordinates": [ 15.43691510696641, 47.085765112366964 ] } },
{ "type": "Feature", "properties": { "OBJECTID": 58, "NAME": "Röm.-kath. Pfarre Christkönig", "ANSCHRIFT": "Ekkehard-Hauer-Straße 28", "PLZ": 8052, "ORT": "Graz" }, "geometry": { "type": "Point", "coordinates": [ 15.391812030455887, 47.04954961675417 ] } },
{ "type": "Feature", "properties": { "OBJECTID": 59, "NAME": "Röm.-kath. Pfarre Karlau", "ANSCHRIFT": "Karlauerstraße 65", "PLZ": 8020, "ORT": "Graz" }, "geometry": { "type": "Point", "coordinates": [ 15.43155489351617, 47.060062253172902 ] } },
{ "type": "Feature", "properties": { "OBJECTID": 60, "NAME": "Dreifaltigkeitskirche", "ANSCHRIFT": "Schloßbergplatz 1", "PLZ": 8010, "ORT": "Graz" }, "geometry": { "type": "Point", "coordinates": [ 15.435701161258358, 47.07286568395201 ] } },
{ "type": "Feature", "properties": { "OBJECTID": 61, "NAME": "Serbisch-Orthodoxe Gemeinde", "ANSCHRIFT": "Triester Straße 164", "PLZ": 8010, "ORT": "Graz" }, "geometry": { "type": "Point", "coordinates": [ 15.428914380124304, 47.046113010828478 ] } },
{ "type": "Feature", "properties": { "OBJECTID": 62, "NAME": "Griechisch-orthodoxe Kirche", "ANSCHRIFT": "Zinzendorfgasse 2", "PLZ": 8010, "ORT": "Graz" }, "geometry": { "type": "Point", "coordinates": [ 15.4465395926042, 47.075030815749244 ] } },
{ "type": "Feature", "properties": { "OBJECTID": 63, "NAME": "Forum 2001", "ANSCHRIFT": "Leechgasse 14", "PLZ": 8020, "ORT": "Graz" }, "geometry": { "type": "Point", "coordinates": [ 15.452285364381199, 47.076074450509303 ] } },
{ "type": "Feature", "properties": { "OBJECTID": 64, "NAME": "Röm.-kath. Stadtpfarre zum Hl.Blut", "ANSCHRIFT": "Herrengasse 23", "PLZ": 8010, "ORT": "Graz" }, "geometry": { "type": "Point", "coordinates": [ 15.441170169835257, 47.069102432743108 ] } },
{ "type": "Feature", "properties": { "OBJECTID": 65, "NAME": "Casa de Guaracy", "ANSCHRIFT": "Heinrichstraße 9", "PLZ": 8010, "ORT": "Graz" }, "geometry": { "type": "Point", "coordinates": [ 15.44555682312993, 47.078480564518891 ] } },
{ "type": "Feature", "properties": { "OBJECTID": 66, "NAME": "Volksmission Graz\/ Christliches Gemeindezentrum", "ANSCHRIFT": "Rosengasse 16", "PLZ": 8042, "ORT": "Graz" }, "geometry": { "type": "Point", "coordinates": [ 15.469281575551189, 47.055618800879202 ] } },
{ "type": "Feature", "properties": { "OBJECTID": 67, "NAME": "Röm.-kath. Pfarre Ragnitz", "ANSCHRIFT": "Ragnitzstraße 168", "PLZ": 8047, "ORT": "Graz" }, "geometry": { "type": "Point", "coordinates": [ 15.493545282816344, 47.077100824259546 ] } },
{ "type": "Feature", "properties": { "OBJECTID": 68, "NAME": "Ihlas, islamische Glaubensgemeinschaft ", "ANSCHRIFT": "Ägydigasse 13", "PLZ": 8020, "ORT": "Graz" }, "geometry": { "type": "Point", "coordinates": [ 15.430676257327571, 47.065009382669331 ] } },
{ "type": "Feature", "properties": { "OBJECTID": 69, "NAME": "Islamischer Jugendverein ", "ANSCHRIFT": "Josefigasse  55", "PLZ": 8020, "ORT": "Graz" }, "geometry": { "type": "Point", "coordinates": [ 15.428086656454946, 47.076315167162221 ] } },
{ "type": "Feature", "properties": { "OBJECTID": 70, "NAME": "Liga Kultur Verein", "ANSCHRIFT": "Neubaugasse 67", "PLZ": 8020, "ORT": "Graz" }, "geometry": { "type": "Point", "coordinates": [ 15.428288620719135, 47.07966214758428 ] } },
{ "type": "Feature", "properties": { "OBJECTID": 1, "NAME": "Vierzehn Nothelferkirche", "ANSCHRIFT": "Bergstraße 27", "PLZ": 8020, "ORT": "Graz" }, "geometry": { "type": "Point", "coordinates": [ 15.392267666554945, 47.078575811734929 ] } },
{ "type": "Feature", "properties": { "OBJECTID": 2, "NAME": "Röm.-kath. Kalvarienbergkirche", "ANSCHRIFT": "Kalvarienbergstraße 155", "PLZ": 8020, "ORT": "Graz" }, "geometry": { "type": "Point", "coordinates": [ 15.417975829480385, 47.092850320935725 ] } },
{ "type": "Feature", "properties": { "OBJECTID": 3, "NAME": "Evangelische Erlöserkirche", "ANSCHRIFT": "Raiffeisenstraße 166", "PLZ": 8041, "ORT": "Graz" }, "geometry": { "type": "Point", "coordinates": [ 15.454314432855289, 47.043292405605023 ] } },
{ "type": "Feature", "properties": { "OBJECTID": 4, "NAME": "Evangelische Johanneskirche", "ANSCHRIFT": "Geißlergasse 7", "PLZ": 8045, "ORT": "Graz" }, "geometry": { "type": "Point", "coordinates": [ 15.421689042835675, 47.105017919707542 ] } },
{ "type": "Feature", "properties": { "OBJECTID": 5, "NAME": "Karma Kagyü Sangha-Graz", "ANSCHRIFT": "Triester Straße 370\/im Hof, 1.Stock", "PLZ": 8055, "ORT": "Graz" }, "geometry": { "type": "Point", "coordinates": [ 15.433104073431625, 47.027611028849925 ] } },
{ "type": "Feature", "properties": { "OBJECTID": 6, "NAME": "Altkatholische Auferstehungskirche", "ANSCHRIFT": "Kernstockgasse 1", "PLZ": 8020, "ORT": "Graz" }, "geometry": { "type": "Point", "coordinates": [ 15.431447445008063, 47.069522243424437 ] } },
{ "type": "Feature", "properties": { "OBJECTID": 7, "NAME": "Röm.-kath. Pfarre Thondorf St.Christoph", "ANSCHRIFT": "Liebenauer Hauptstraße 291", "PLZ": 8041, "ORT": "Graz" }, "geometry": { "type": "Point", "coordinates": [ 15.470970721713741, 47.021917717195507 ] } },
{ "type": "Feature", "properties": { "OBJECTID": 8, "NAME": "Röm.-kath. Pfarre St.Paul Eisteichsiedlung", "ANSCHRIFT": "Dr.-Robert-Graf-Straße 40a", "PLZ": 8010, "ORT": "Graz" }, "geometry": { "type": "Point", "coordinates": [ 15.469764236288942, 47.063717237195327 ] } },
{ "type": "Feature", "properties": { "OBJECTID": 9, "NAME": "Röm.-kath. Pfarre Graz-Süd Christus der Auferstandene", "ANSCHRIFT": "Anton-Lippe-Platz 1", "PLZ": 8041, "ORT": "Graz" }, "geometry": { "type": "Point", "coordinates": [ 15.450718544572482, 47.046774805305965 ] } },
{ "type": "Feature", "properties": { "OBJECTID": 10, "NAME": "Röm.-kath. Pfarre Straßgang Maria Elend", "ANSCHRIFT": "Florianibergstraße 15", "PLZ": 8054, "ORT": "Graz" }, "geometry": { "type": "Point", "coordinates": [ 15.399146979528144, 47.021774011035355 ] } },
{ "type": "Feature", "properties": { "OBJECTID": 11, "NAME": "Bürgerspitalkirche zum Heiligen Geist", "ANSCHRIFT": "Dominikanergasse 8", "PLZ": 8020, "ORT": "Graz" }, "geometry": { "type": "Point", "coordinates": [ 15.429336591155433, 47.070279826064429 ] } },
{ "type": "Feature", "properties": { "OBJECTID": 12, "NAME": "Barmherzigenkirche", "ANSCHRIFT": "Annenstraße 2", "PLZ": 8020, "ORT": "Graz" }, "geometry": { "type": "Point", "coordinates": [ 15.432040900662484, 47.071287925787153 ] } },
{ "type": "Feature", "properties": { "OBJECTID": 13, "NAME": "Grazer Dom", "ANSCHRIFT": "Burggasse 3", "PLZ": 8010, "ORT": "Graz" }, "geometry": { "type": "Point", "coordinates": [ 15.44230223398201, 47.071946426537963 ] } },
{ "type": "Feature", "properties": { "OBJECTID": 14, "NAME": "Leechkirche Universitätskirche", "ANSCHRIFT": "Zinzendorfgasse 2", "PLZ": 8010, "ORT": "Graz" }, "geometry": { "type": "Point", "coordinates": [ 15.4465395926042, 47.075030815749244 ] } },
{ "type": "Feature", "properties": { "OBJECTID": 15, "NAME": "Adventgemeinde Graz", "ANSCHRIFT": "Alte Poststraße 247", "PLZ": 8020, "ORT": "Graz" }, "geometry": { "type": "Point", "coordinates": [ 15.415645539864109, 47.057823876110035 ] } },
{ "type": "Feature", "properties": { "OBJECTID": 16, "NAME": "Armenisch-apostolische Kirchengemeinde, Sektion Steiermark", "ANSCHRIFT": "Hauseggerstraße 35", "PLZ": 8020, "ORT": "Graz" }, "geometry": { "type": "Point", "coordinates": [ 15.403784674903001, 47.067009112840054 ] } },
{ "type": "Feature", "properties": { "OBJECTID": 17, "NAME": "Evangelische Pfarre Christuskirche", "ANSCHRIFT": "Burenstraße 9", "PLZ": 8020, "ORT": "Graz" }, "geometry": { "type": "Point", "coordinates": [ 15.392594833207747, 47.0694225981483 ] } },
{ "type": "Feature", "properties": { "OBJECTID": 18, "NAME": "Evangelische Pfarre Heilandskirche", "ANSCHRIFT": "Kaiser-Josef-Platz 9", "PLZ": 8010, "ORT": "Graz" }, "geometry": { "type": "Point", "coordinates": [ 15.446234700380325, 47.068185182691792 ] } },
{ "type": "Feature", "properties": { "OBJECTID": 19, "NAME": "Eckankar Center Graz", "ANSCHRIFT": "Grabenstraße 14", "PLZ": 8010, "ORT": "Graz" }, "geometry": { "type": "Point", "coordinates": [ 15.438832432706024, 47.080269883621966 ] } },
{ "type": "Feature", "properties": { "OBJECTID": 20, "NAME": "Evangelisch-methodistische Kirche", "ANSCHRIFT": "Wielandgasse 10", "PLZ": 8020, "ORT": "Graz" }, "geometry": { "type": "Point", "coordinates": [ 15.438920365487949, 47.065499312158053 ] } },
{ "type": "Feature", "properties": { "OBJECTID": 21, "NAME": "Röm.-kath. Franziskanerkirche", "ANSCHRIFT": "Franziskanerplatz 14", "PLZ": 8010, "ORT": "Graz" }, "geometry": { "type": "Point", "coordinates": [ 15.436988771242808, 47.070445765516219 ] } },
{ "type": "Feature", "properties": { "OBJECTID": 22, "NAME": "Stiegenkirche", "ANSCHRIFT": "Sporgasse 21a", "PLZ": 8010, "ORT": "Graz" }, "geometry": { "type": "Point", "coordinates": [ 15.438745289894015, 47.072558287176896 ] } },
{ "type": "Feature", "properties": { "OBJECTID": 23, "NAME": "Röm.-kath. Pfarre Don Bosco", "ANSCHRIFT": "Südbahnstraße 100", "PLZ": 8020, "ORT": "Graz" }, "geometry": { "type": "Point", "coordinates": [ 15.416909428141981, 47.056960852042295 ] } },
{ "type": "Feature", "properties": { "OBJECTID": 24, "NAME": "Synagoge", "ANSCHRIFT": "David-Herzog-Platz 1", "PLZ": 8020, "ORT": "Graz" }, "geometry": { "type": "Point", "coordinates": [ 15.433320705181437, 47.063908759319681 ] } },
{ "type": "Feature", "properties": { "OBJECTID": 25, "NAME": "Röm.-kath. Pfarre Herz Jesu", "ANSCHRIFT": "Sparbersbachgasse 58", "PLZ": 8010, "ORT": "Graz" }, "geometry": { "type": "Point", "coordinates": [ 15.455232569668627, 47.070006475060666 ] } },
{ "type": "Feature", "properties": { "OBJECTID": 26, "NAME": "Röm.-kath. Pfarre St.Josef", "ANSCHRIFT": "Schönaugürtel 41", "PLZ": 8010, "ORT": "Graz" }, "geometry": { "type": "Point", "coordinates": [ 15.44172534079738, 47.058586926419416 ] } },
{ "type": "Feature", "properties": { "OBJECTID": 27, "NAME": "Röm.-kath. Pfarre Heiliger Schutzengel", "ANSCHRIFT": "Hauseggerstraße 72", "PLZ": 8020, "ORT": "Graz" }, "geometry": { "type": "Point", "coordinates": [ 15.397044268840341, 47.067689027816961 ] } },
{ "type": "Feature", "properties": { "OBJECTID": 28, "NAME": "Röm.-kath. Pfarre Gösting", "ANSCHRIFT": "Göstinger Straße 189", "PLZ": 8051, "ORT": "Graz" }, "geometry": { "type": "Point", "coordinates": [ 15.394957637958441, 47.096701904528544 ] } },
{ "type": "Feature", "properties": { "OBJECTID": 29, "NAME": "Herz-Jesu-Kirche", "ANSCHRIFT": "Sparbersbachgasse 58", "PLZ": 8010, "ORT": "Graz" }, "geometry": { "type": "Point", "coordinates": [ 15.455735049489601, 47.069626755266647 ] } },
{ "type": "Feature", "properties": { "OBJECTID": 30, "NAME": "Temploguaracy", "ANSCHRIFT": "Puchstraße 17-21", "PLZ": 8020, "ORT": "Graz" }, "geometry": { "type": "Point", "coordinates": [ 15.434254894783169, 47.051320689385086 ] } },
{ "type": "Feature", "properties": { "OBJECTID": 31, "NAME": "Röm.-kath. Pfarre St.Vinzenz", "ANSCHRIFT": "Vinzenzgasse 42", "PLZ": 8020, "ORT": "Graz" }, "geometry": { "type": "Point", "coordinates": [ 15.404942316969295, 47.074619059789825 ] } },
{ "type": "Feature", "properties": { "OBJECTID": 32, "NAME": "Röm.-kath. Dompfarre St. Ägidius", "ANSCHRIFT": "Burggasse 3", "PLZ": 8010, "ORT": "Graz" }, "geometry": { "type": "Point", "coordinates": [ 15.443249652081905, 47.071715298232682 ] } },
{ "type": "Feature", "properties": { "OBJECTID": 33, "NAME": "Islamische Religionsgemeinde Graz", "ANSCHRIFT": "Niesenbergergasse 40", "PLZ": 8020, "ORT": "Graz" }, "geometry": { "type": "Point", "coordinates": [ 15.423351542440844, 47.070410379122762 ] } },
{ "type": "Feature", "properties": { "OBJECTID": 34, "NAME": "Baptistengemeinde", "ANSCHRIFT": "Idlhofgasse 89", "PLZ": 8020, "ORT": "Graz" }, "geometry": { "type": "Point", "coordinates": [ 15.424014420963417, 47.065279549268134 ] } },
{ "type": "Feature", "properties": { "OBJECTID": 35, "NAME": "El-Nur Liga Kultur", "ANSCHRIFT": "Peter-Rosegger-Straße 56", "PLZ": 8054, "ORT": "Graz" }, "geometry": { "type": "Point", "coordinates": [ 15.405796409809328, 47.053041302409433 ] } },
{ "type": "Feature", "properties": { "OBJECTID": 36, "NAME": "Röm.-kath. Pfarre St.Veit", "ANSCHRIFT": "St.-Veiter-Straße 86", "PLZ": 8045, "ORT": "Graz" }, "geometry": { "type": "Point", "coordinates": [ 15.411940432259245, 47.116024967078062 ] } },
{ "type": "Feature", "properties": { "OBJECTID": 37, "NAME": "Röm.-kath. Pfarre St.Leonhard", "ANSCHRIFT": "Leonhardplatz 14", "PLZ": 8010, "ORT": "Graz" }, "geometry": { "type": "Point", "coordinates": [ 15.464653417609743, 47.078378316149369 ] } },
{ "type": "Feature", "properties": { "OBJECTID": 38, "NAME": "Röm.-kath. Pfarre Mariahilf", "ANSCHRIFT": "Mariahilferplatz 3", "PLZ": 8020, "ORT": "Graz" }, "geometry": { "type": "Point", "coordinates": [ 15.43322913461903, 47.072735327740055 ] } },
{ "type": "Feature", "properties": { "OBJECTID": 39, "NAME": "Röm.-kath. Pfarre Messendorf", "ANSCHRIFT": "Autaler Straße 3", "PLZ": 8042, "ORT": "Graz" }, "geometry": { "type": "Point", "coordinates": [ 15.493592865614627, 47.036561941160997 ] } },
{ "type": "Feature", "properties": { "OBJECTID": 40, "NAME": "Buddhistische Religionsgesellschaft Andritz", "ANSCHRIFT": "Luigi-Kasimir-Gasse 3", "PLZ": 8045, "ORT": "Graz" }, "geometry": { "type": "Point", "coordinates": [ 15.438240843892588, 47.119429407116051 ] } },
{ "type": "Feature", "properties": { "OBJECTID": 41, "NAME": "Rumänisch-Orthodoxe Pfarrgemeinde", "ANSCHRIFT": "Dreierschützengasse 39c\/5", "PLZ": 8020, "ORT": "Graz" }, "geometry": { "type": "Point", "coordinates": [ 15.408278655758989, 47.077227775141935 ] } },
{ "type": "Feature", "properties": { "OBJECTID": 42, "NAME": "Evangelisch-Freikirchliche Gemeinde", "ANSCHRIFT": "Falkenhofgasse 19", "PLZ": 8020, "ORT": "Graz" }, "geometry": { "type": "Point", "coordinates": [ 15.426651685781604, 47.056553682550067 ] } },
{ "type": "Feature", "properties": { "OBJECTID": 71, "NAME": "Verein der Bosniaken Steiermark", "ANSCHRIFT": "Herrgottwiesgasse 2", "PLZ": 8020, "ORT": "Graz" }, "geometry": { "type": "Point", "coordinates": [ 15.430972357511274, 47.058313034764936 ] } },
{ "type": "Feature", "properties": { "OBJECTID": 72, "NAME": "Verein der islamischen Einheit in Österreich", "ANSCHRIFT": "Kalvarienbergstraße 18a", "PLZ": 8020, "ORT": "Graz" }, "geometry": { "type": "Point", "coordinates": [ 15.422437551918254, 47.083379089221978 ] } },
{ "type": "Feature", "properties": { "OBJECTID": 73, "NAME": "Muslimische Gemeinschaft Steiermark", "ANSCHRIFT": "Hans-Groß-Gasse 13", "PLZ": 8055, "ORT": "Graz" }, "geometry": { "type": "Point", "coordinates": [ 15.42660986190182, 47.042840864802827 ] } },
{ "type": "Feature", "properties": { "OBJECTID": 74, "NAME": "Albanisches Kulturzentrum", "ANSCHRIFT": "Ungergasse 39", "PLZ": 8020, "ORT": "Graz" }, "geometry": { "type": "Point", "coordinates": [ 15.422565566631093, 47.067265667137278 ] } },
{ "type": "Feature", "properties": { "OBJECTID": 75, "NAME": "Röm.-kath. Kirche, Diözese Graz-Seckau", "ANSCHRIFT": "Bischofplatz 4", "PLZ": 8010, "ORT": "Graz" }, "geometry": { "type": "Point", "coordinates": [ 15.441943076704961, 47.070239190593917 ] } },
{ "type": "Feature", "properties": { "OBJECTID": 76, "NAME": "Röm.-kath. Pfarre St.Peter ", "ANSCHRIFT": "Gruber-Mohr-Weg 9", "PLZ": 8042, "ORT": "Graz" }, "geometry": { "type": "Point", "coordinates": [ 15.475166257217145, 47.055334802863378 ] } },
{ "type": "Feature", "properties": { "OBJECTID": 77, "NAME": "Röm.-kath. Pfarre Andritz Zur Heiligen Familie", "ANSCHRIFT": "Haberlandtweg 17\/ABC-Begegnunszentrum", "PLZ": 8045, "ORT": "Graz" }, "geometry": { "type": "Point", "coordinates": [ 15.423281604627078, 47.105497304322007 ] } },
{ "type": "Feature", "properties": { "OBJECTID": 78, "NAME": "Islamisches Zentrum", "ANSCHRIFT": "Nibelungengasse 42\/1.Stock", "PLZ": 8010, "ORT": "Graz" }, "geometry": { "type": "Point", "coordinates": [ 15.457483198826324, 47.070052653260433 ] } },
{ "type": "Feature", "properties": { "OBJECTID": 79, "NAME": "Welsche Kirche", "ANSCHRIFT": "Griesplatz 30", "PLZ": 8020, "ORT": "Graz" }, "geometry": { "type": "Point", "coordinates": [ 15.431270846929026, 47.066016361643179 ] } },
{ "type": "Feature", "properties": { "OBJECTID": 80, "NAME": "Mormonen, Kirche Jesu Christi der Heiligen der Letzten Tage", "ANSCHRIFT": "Eckertstraße 136", "PLZ": 8020, "ORT": "Graz" }, "geometry": { "type": "Point", "coordinates": [ 15.389792353595286, 47.068417116077015 ] } },
{ "type": "Feature", "properties": { "OBJECTID": 81, "NAME": "Röm.-kath. Pfarre Hl. Erlöser \/LKH", "ANSCHRIFT": "Auenbruggerplatz 1", "PLZ": 8036, "ORT": "Graz" }, "geometry": { "type": "Point", "coordinates": [ 15.465254098867415, 47.079987255227216 ] } },
{ "type": "Feature", "properties": { "OBJECTID": 82, "NAME": "Koptisch-orthodoxe St.Johanneskirche ", "ANSCHRIFT": "Wiener Straße 246b", "PLZ": 8051, "ORT": "Graz" }, "geometry": { "type": "Point", "coordinates": [ 15.406742605035635, 47.093617152624979 ] } },
{ "type": "Feature", "properties": { "OBJECTID": 83, "NAME": "Pfingstliche Gemeinde Gottes", "ANSCHRIFT": "Tiergartenweg 11a", "PLZ": 8055, "ORT": "Graz" }, "geometry": { "type": "Point", "coordinates": [ 15.4315040709435, 47.041862208780621 ] } },
{ "type": "Feature", "properties": { "OBJECTID": 84, "NAME": "Internationale Baptist Church-Graz", "ANSCHRIFT": "Ziehrerstraße 83\/Seminarraum von Wiki", "PLZ": 8041, "ORT": "Graz" }, "geometry": { "type": "Point", "coordinates": [ 15.454243612859823, 47.039031937109947 ] } },
{ "type": "Feature", "properties": { "OBJECTID": 85, "NAME": "Bethel Prayer Ministries International", "ANSCHRIFT": "Karlauplatz 3b\/Hofgebäude", "PLZ": 8020, "ORT": "Graz" }, "geometry": { "type": "Point", "coordinates": [ 15.431418038217084, 47.058893821661989 ] } },
{ "type": "Feature", "properties": { "OBJECTID": 86, "NAME": "Russisch-Orthodoxe Kirche, Kreuzgangkapelle", "ANSCHRIFT": "Mariahilferplatz 3", "PLZ": 8020, "ORT": "Graz" }, "geometry": { "type": "Point", "coordinates": [ 15.432762336890372, 47.072529349474529 ] } },
{ "type": "Feature", "properties": { "OBJECTID": 87, "NAME": "Neuapostolische Kirche", "ANSCHRIFT": "Hohenstaufengasse 9", "PLZ": 8020, "ORT": "Graz" }, "geometry": { "type": "Point", "coordinates": [ 15.424766585996661, 47.059126769419692 ] } },
{ "type": "Feature", "properties": { "OBJECTID": 88, "NAME": "Griechisch-orthodoxe Kirche", "ANSCHRIFT": "Johann-Fux-Gasse 30", "PLZ": 8010, "ORT": "Graz" }, "geometry": { "type": "Point", "coordinates": [ 15.454734049987833, 47.08091762947398 ] } },
{ "type": "Feature", "properties": { "OBJECTID": 89, "NAME": "Altkatholische Kirchengemeinde", "ANSCHRIFT": "Kernstockgasse 3", "PLZ": 8020, "ORT": "Graz" }, "geometry": { "type": "Point", "coordinates": [ 15.43093225314693, 47.0696127439478 ] } },
{ "type": "Feature", "properties": { "OBJECTID": 90, "NAME": "Die Christengemeinschaft", "ANSCHRIFT": "Körösistraße 59", "PLZ": 8010, "ORT": "Graz" }, "geometry": { "type": "Point", "coordinates": [ 15.430546600100522, 47.083212369518627 ] } },
{ "type": "Feature", "properties": { "OBJECTID": 91, "NAME": "Röm.-kath. Pfarre Kroisbach", "ANSCHRIFT": "Am Rehgrund 2", "PLZ": 8043, "ORT": "Graz" }, "geometry": { "type": "Point", "coordinates": [ 15.466161771874086, 47.093493392435583 ] } },
{ "type": "Feature", "properties": { "OBJECTID": 92, "NAME": "Israelitische Religionsgesellschaft", "ANSCHRIFT": "David-Herzog-Platz 1", "PLZ": 8020, "ORT": "Graz" }, "geometry": { "type": "Point", "coordinates": [ 15.433679852089927, 47.064059234931854 ] } },
{ "type": "Feature", "properties": { "OBJECTID": 93, "NAME": "Röm.-kath. Pfarre Schmerzhafte Mutter, Lazaristenkriche", "ANSCHRIFT": "Mariengasse 31", "PLZ": 8020, "ORT": "Graz" }, "geometry": { "type": "Point", "coordinates": [ 15.421142730975561, 47.076372508533233 ] } },
{ "type": "Feature", "properties": { "OBJECTID": 94, "NAME": "Sakya Tsechen Changchub Ling", "ANSCHRIFT": "Körblergasse 62", "PLZ": 8010, "ORT": "Graz" }, "geometry": { "type": "Point", "coordinates": [ 15.444572040396961, 47.08473014720137 ] } },
{ "type": "Feature", "properties": { "OBJECTID": 95, "NAME": "Exousia Christengemeinde", "ANSCHRIFT": "Herrgottwiesgasse 55", "PLZ": 8020, "ORT": "Graz" }, "geometry": { "type": "Point", "coordinates": [ 15.432511992252042, 47.05330588458866 ] } },
{ "type": "Feature", "properties": { "OBJECTID": 96, "NAME": "Union Islamischer Kulturzentren UIKZ", "ANSCHRIFT": "Josef-Huber-Gasse 9\/pt", "PLZ": 8020, "ORT": "Graz" }, "geometry": { "type": "Point", "coordinates": [ 15.425067567326186, 47.066136982295305 ] } },
{ "type": "Feature", "properties": { "OBJECTID": 97, "NAME": "Jehovas Zeugen, Zeppelinstraße", "ANSCHRIFT": "Zeppelinstraße 15", "PLZ": 8020, "ORT": "Graz" }, "geometry": { "type": "Point", "coordinates": [ 15.426761412554169, 47.041678617533535 ] } },
{ "type": "Feature", "properties": { "OBJECTID": 98, "NAME": "Jehovas Zeugen Liebenau", "ANSCHRIFT": "Johann-Sebastian-Bach-Gasse 17", "PLZ": 8041, "ORT": null }, "geometry": { "type": "Point", "coordinates": [ 15.455236892465418, 47.048233209835836 ] } },
{ "type": "Feature", "properties": { "OBJECTID": 99, "NAME": "Jehovas Zeugen Maderspergergasse", "ANSCHRIFT": "Maderspergergasse 17", "PLZ": 8020, "ORT": "Graz" }, "geometry": { "type": "Point", "coordinates": [ 15.395912006752869, 47.066894092867393 ] } },
{ "type": "Feature", "properties": { "OBJECTID": 100, "NAME": "Jehovas Zeugen, Grazer Straße", "ANSCHRIFT": "Grazer Straße 24b", "PLZ": 8045, "ORT": "Graz" }, "geometry": { "type": "Point", "coordinates": [ 15.419559792280396, 47.098247318867465 ] } },
{ "type": "Feature", "properties": { "OBJECTID": 101, "NAME": "Freie Christengemeinde bzw. Pfingstgemeinde", "ANSCHRIFT": "Conrad-von-Hötzendorf-Straße 64", "PLZ": 8010, "ORT": "Graz" }, "geometry": { "type": "Point", "coordinates": [ 15.445620746050004, 47.058402212284079 ] } },
{ "type": "Feature", "properties": { "OBJECTID": 102, "NAME": "Zentralfriedhofskirche", "ANSCHRIFT": "Triester Straße 164", "PLZ": 8020, "ORT": "Graz" }, "geometry": { "type": "Point", "coordinates": [ 15.427463611856851, 47.045430356548906 ] } },
{ "type": "Feature", "properties": { "OBJECTID": 103, "NAME": "Evangelikale Gemeinde", "ANSCHRIFT": "Grabenstraße 40", "PLZ": 8010, "ORT": "Graz" }, "geometry": { "type": "Point", "coordinates": [ 15.438211233700212, 47.083249153265925 ] } },
{ "type": "Feature", "properties": { "OBJECTID": 104, "NAME": "Röm.-kath. Pfarre St.Andrä", "ANSCHRIFT": "Kernstockgasse 9", "PLZ": 8020, "ORT": "Graz" }, "geometry": { "type": "Point", "coordinates": [ 15.429718823776222, 47.069756488875335 ] } },
{ "type": "Feature", "properties": { "OBJECTID": 105, "NAME": "Buddhistitsche Religionsgesellschaft Karma Kagyü", "ANSCHRIFT": "Pfeifferhofweg 94", "PLZ": 8045, "ORT": "Graz" }, "geometry": { "type": "Point", "coordinates": [ 15.440927417690368, 47.106479189103851 ] } }
]
}
